CCSDS_OMM_VERS = 2.0
CREATION_DATE  = 
ORIGINATOR     = 

OBJECT_NAME    = CYGNUS NG-23
OBJECT_ID      = 2025-208A
CENTER_NAME    = EARTH
REF_FRAME      = TEME
TIME_SYSTEM    = UTC
MEAN_ELEMENT_THEORY = SGP/SGP4

EPOCH          = 2025-12-29T12:01:02.523360
MEAN_MOTION    = 15.49944447
ECCENTRICITY   = .00032899
INCLINATION    = 51.6323
RA_OF_ASC_NODE = 59.4638
ARG_OF_PERICENTER = 318.5670
MEAN_ANOMALY   = 41.5069

EPHEMERIS_TYPE = 0
CLASSIFICATION_TYPE = U
NORAD_CAT_ID   = 65616
ELEMENT_SET_NO = 999
REV_AT_EPOCH   = 22
BSTAR          = .33150262E-3
MEAN_MOTION_DOT = .18472E-3
MEAN_MOTION_DDOT = 0

CCSDS_OMM_VERS = 2.0
CREATION_DATE  = 
ORIGINATOR     = 

OBJECT_NAME    = DRAGONFLY
OBJECT_ID      = 1998-067XH
CENTER_NAME    = EARTH
REF_FRAME      = TEME
TIME_SYSTEM    = UTC
MEAN_ELEMENT_THEORY = SGP/SGP4

EPOCH          = 2025-12-30T02:58:15.013632
MEAN_MOTION    = 15.78757510
ECCENTRICITY   = .0008645
INCLINATION    = 51.6255
RA_OF_ASC_NODE = 46.3395
ARG_OF_PERICENTER = 18.3792
MEAN_ANOMALY   = 341.7520

EPHEMERIS_TYPE = 0
CLASSIFICATION_TYPE = U
NORAD_CAT_ID   = 65729
ELEMENT_SET_NO = 999
REV_AT_EPOCH   = 1590
BSTAR          = .16118E-2
MEAN_MOTION_DOT = .299553E-2
MEAN_MOTION_DDOT = 0

CCSDS_OMM_VERS = 2.0
CREATION_DATE  = 
ORIGINATOR     = 

OBJECT_NAME    = 1998-067XK
OBJECT_ID      = 1998-067XK
CENTER_NAME    = EARTH
REF_FRAME      = TEME
TIME_SYSTEM    = UTC
MEAN_ELEMENT_THEORY = SGP/SGP4

EPOCH          = 2025-12-30T03:20:56.079744
MEAN_MOTION    = 15.69410975
ECCENTRICITY   = .0005227
INCLINATION    = 51.6294
RA_OF_ASC_NODE = 48.7325
ARG_OF_PERICENTER = 353.5628
MEAN_ANOMALY   = 6.5301

EPHEMERIS_TYPE = 0
CLASSIFICATION_TYPE = U
NORAD_CAT_ID   = 65731
ELEMENT_SET_NO = 999
REV_AT_EPOCH   = 1587
BSTAR          = .11998E-2
MEAN_MOTION_DOT = .145834E-2
MEAN_MOTION_DDOT = 0

CCSDS_OMM_VERS = 2.0
CREATION_DATE  = 
ORIGINATOR     = 

OBJECT_NAME    = RSP-03
OBJECT_ID      = 1998-067XL
CENTER_NAME    = EARTH
REF_FRAME      = TEME
TIME_SYSTEM    = UTC
MEAN_ELEMENT_THEORY = SGP/SGP4

EPOCH          = 2025-12-30T02:32:46.124160
MEAN_MOTION    = 15.73594080
ECCENTRICITY   = .0006304
INCLINATION    = 51.6266
RA_OF_ASC_NODE = 47.7402
ARG_OF_PERICENTER = 0.2042
MEAN_ANOMALY   = 359.8958

EPHEMERIS_TYPE = 0
CLASSIFICATION_TYPE = U
NORAD_CAT_ID   = 65732
ELEMENT_SET_NO = 999
REV_AT_EPOCH   = 1589
BSTAR          = .1447E-2
MEAN_MOTION_DOT = .211731E-2
MEAN_MOTION_DDOT = 0

CCSDS_OMM_VERS = 2.0
CREATION_DATE  = 
ORIGINATOR     = 

OBJECT_NAME    = GHS-01
OBJECT_ID      = 1998-067XM
CENTER_NAME    = EARTH
REF_FRAME      = TEME
TIME_SYSTEM    = UTC
MEAN_ELEMENT_THEORY = SGP/SGP4

EPOCH          = 2025-12-29T09:38:58.474752
MEAN_MOTION    = 15.83384232
ECCENTRICITY   = .00097153
INCLINATION    = 51.6276
RA_OF_ASC_NODE = 49.0281
ARG_OF_PERICENTER = 18.8599
MEAN_ANOMALY   = 341.2762

EPHEMERIS_TYPE = 0
CLASSIFICATION_TYPE = U
NORAD_CAT_ID   = 65733
ELEMENT_SET_NO = 999
REV_AT_EPOCH   = 1581
BSTAR          = .17753679E-2
MEAN_MOTION_DOT = .4143E-2
MEAN_MOTION_DDOT = 0

CCSDS_OMM_VERS = 2.0
CREATION_DATE  = 
ORIGINATOR     = 

OBJECT_NAME    = YOTSUBA-KULOVER
OBJECT_ID      = 1998-067XN
CENTER_NAME    = EARTH
REF_FRAME      = TEME
TIME_SYSTEM    = UTC
MEAN_ELEMENT_THEORY = SGP/SGP4

EPOCH          = 2025-12-29T08:41:27.971520
MEAN_MOTION    = 15.61820724
ECCENTRICITY   = .00029882
INCLINATION    = 51.6297
RA_OF_ASC_NODE = 56.2929
ARG_OF_PERICENTER = 20.6804
MEAN_ANOMALY   = 339.4310

EPHEMERIS_TYPE = 0
CLASSIFICATION_TYPE = U
NORAD_CAT_ID   = 65941
ELEMENT_SET_NO = 999
REV_AT_EPOCH   = 1245
BSTAR          = .11005343E-2
MEAN_MOTION_DOT = .97972E-3
MEAN_MOTION_DDOT = 0

CCSDS_OMM_VERS = 2.0
CREATION_DATE  = 
ORIGINATOR     = 

OBJECT_NAME    = BOTAN
OBJECT_ID      = 1998-067XP
CENTER_NAME    = EARTH
REF_FRAME      = TEME
TIME_SYSTEM    = UTC
MEAN_ELEMENT_THEORY = SGP/SGP4

EPOCH          = 2025-12-29T09:19:10.778880
MEAN_MOTION    = 15.66651732
ECCENTRICITY   = .00039493
INCLINATION    = 51.6280
RA_OF_ASC_NODE = 54.9645
ARG_OF_PERICENTER = 6.1165
MEAN_ANOMALY   = 353.9879

EPHEMERIS_TYPE = 0
CLASSIFICATION_TYPE = U
NORAD_CAT_ID   = 65942
ELEMENT_SET_NO = 999
REV_AT_EPOCH   = 1247
BSTAR          = .14634063E-2
MEAN_MOTION_DOT = .159209E-2
MEAN_MOTION_DDOT = 0

CCSDS_OMM_VERS = 2.0
CREATION_DATE  = 
ORIGINATOR     = 

OBJECT_NAME    = E-KAGAKU-1
OBJECT_ID      = 1998-067XQ
CENTER_NAME    = EARTH
REF_FRAME      = TEME
TIME_SYSTEM    = UTC
MEAN_ELEMENT_THEORY = SGP/SGP4

EPOCH          = 2025-12-29T08:41:30.788160
MEAN_MOTION    = 15.61851101
ECCENTRICITY   = .00017232
INCLINATION    = 51.6307
RA_OF_ASC_NODE = 56.2984
ARG_OF_PERICENTER = 0.4534
MEAN_ANOMALY   = 359.6461

EPHEMERIS_TYPE = 0
CLASSIFICATION_TYPE = U
NORAD_CAT_ID   = 65943
ELEMENT_SET_NO = 999
REV_AT_EPOCH   = 1245
BSTAR          = .11222668E-2
MEAN_MOTION_DOT = .100051E-2
MEAN_MOTION_DDOT = 0

CCSDS_OMM_VERS = 2.0
CREATION_DATE  = 
ORIGINATOR     = 

OBJECT_NAME    = HRC MONOBLOCK CAMERA
OBJECT_ID      = 1998-067XR
CENTER_NAME    = EARTH
REF_FRAME      = TEME
TIME_SYSTEM    = UTC
MEAN_ELEMENT_THEORY = SGP/SGP4

EPOCH          = 2025-12-30T03:13:34.027104
MEAN_MOTION    = 15.55411618
ECCENTRICITY   = .0001674
INCLINATION    = 51.6310
RA_OF_ASC_NODE = 54.6971
ARG_OF_PERICENTER = 276.0871
MEAN_ANOMALY   = 83.9929

EPHEMERIS_TYPE = 0
CLASSIFICATION_TYPE = U
NORAD_CAT_ID   = 66052
ELEMENT_SET_NO = 999
REV_AT_EPOCH   = 1154
BSTAR          = .65719E-3
MEAN_MOTION_DOT = .45374E-3
MEAN_MOTION_DDOT = 0

CCSDS_OMM_VERS = 2.0
CREATION_DATE  = 
ORIGINATOR     = 

OBJECT_NAME    = HTV-X1
OBJECT_ID      = 2025-241A
CENTER_NAME    = EARTH
REF_FRAME      = TEME
TIME_SYSTEM    = UTC
MEAN_ELEMENT_THEORY = SGP/SGP4

EPOCH          = 2025-12-29T12:01:02.523360
MEAN_MOTION    = 15.49944447
ECCENTRICITY   = .00032899
INCLINATION    = 51.6323
RA_OF_ASC_NODE = 59.4638
ARG_OF_PERICENTER = 318.5670
MEAN_ANOMALY   = 41.5069

EPHEMERIS_TYPE = 0
CLASSIFICATION_TYPE = U
NORAD_CAT_ID   = 66174
ELEMENT_SET_NO = 999
REV_AT_EPOCH   = 51
BSTAR          = .33150262E-3
MEAN_MOTION_DOT = .18472E-3
MEAN_MOTION_DDOT = 0

CCSDS_OMM_VERS = 2.0
CREATION_DATE  = 
ORIGINATOR     = 

OBJECT_NAME    = SZ-21 MODULE
OBJECT_ID      = 2025-246C
CENTER_NAME    = EARTH
REF_FRAME      = TEME
TIME_SYSTEM    = UTC
MEAN_ELEMENT_THEORY = SGP/SGP4

EPOCH          = 2025-12-30T02:40:19.336224
MEAN_MOTION    = 15.63480572
ECCENTRICITY   = .0003305
INCLINATION    = 41.4763
RA_OF_ASC_NODE = 270.0034
ARG_OF_PERICENTER = 356.9568
MEAN_ANOMALY   = 3.1251

EPHEMERIS_TYPE = 0
CLASSIFICATION_TYPE = U
NORAD_CAT_ID   = 66515
ELEMENT_SET_NO = 999
REV_AT_EPOCH   = 716
BSTAR          = .40775E-3
MEAN_MOTION_DOT = .38668E-3
MEAN_MOTION_DDOT = 0

CCSDS_OMM_VERS = 2.0
CREATION_DATE  = 
ORIGINATOR     = 

OBJECT_NAME    = SHENZHOU-22
OBJECT_ID      = 2025-272A
CENTER_NAME    = EARTH
REF_FRAME      = TEME
TIME_SYSTEM    = UTC
MEAN_ELEMENT_THEORY = SGP/SGP4

EPOCH          = 2025-12-29T04:08:44.785248
MEAN_MOTION    = 15.59842432
ECCENTRICITY   = .00092303
INCLINATION    = 41.4674
RA_OF_ASC_NODE = 276.8939
ARG_OF_PERICENTER = 173.1352
MEAN_ANOMALY   = 186.9615

EPHEMERIS_TYPE = 0
CLASSIFICATION_TYPE = U
NORAD_CAT_ID   = 66645
ELEMENT_SET_NO = 999
REV_AT_EPOCH   = 26598
BSTAR          = .31522987E-3
MEAN_MOTION_DOT = .25856E-3
MEAN_MOTION_DDOT = 0

